developmentProjectName,developmentProjectAddressText,statusDsc,officeSquareFeetQty,retailSquareFeetQty,otherSquareFeetQty,residentialUnitCnt,hotelRoomCnt,sitePlanDate,underConstructionDate,generalLandUsePlanDsc,zoningTypeDsc,developerName,siteSquareFeetQty,houseTypeDsc,heightFeetQty,storiesCnt,parkingSpaceCnt,latitudeCrd,longitudeCrd
Rosslyn Plaza PDSP,1001 WILSON BVLD,Approved (Not Under Construction),1810173,45000,0,550,200,2016-03-12T00:00:00,,High Office-Apartment-Hotel,C-O-ROSSLYN,,333219,Highrise (4+ stories),390,,2168,38.89473481,-77.06875981
1023 N Danville St,1023 N DANVILLE ST,Under Construction,0,0,0,1,0,,2017-08-02T00:00:00,Low Residential (1-10 units/acre),"One-Family, Restricted Two Family Dwelling Distr",,,Single-family detached house,,,,38.88541731,-77.08967695
1023 S  Queen St,1023 S QUEEN ST,Under Construction,0,0,0,1,0,,2015-10-12T00:00:00,Low Residential (1-10 units/acre),"One-Family, Restricted Two Family Dwelling Distr",,,Single-family detached house,,,,38.86463219,-77.07367719
106 N Garfield St,106 N  GARFIELD ST,Under Construction,0,0,0,1,0,,2017-03-24T00:00:00,Low Residential (1-10 units/acre),One-Family Dwelling District,,,Single-family detached house,,,,38.87501975,-77.09199874
1100 N Roosevelt St,1100 N ROOSEVELT ST,Under Construction,0,0,0,1,0,,2015-10-05T00:00:00,Low Residential (1-10 units/acre),One-Family Dwelling District,,6300,Single-family detached house,,,,38.87977377,-77.15443858
1102 S Queen St,1102 S QUEEN ST,Under Construction,0,0,0,1,0,,2010-03-10T00:00:00,Low Residential (1-10 units/acre),"One-Family, Restricted Two Family Dwelling Distr",,2790,Single-family detached house,,,,38.86433415,-77.07329384
1106 S Highland St,1106 S HIGHLAND ST,Under Construction,0,0,0,1,0,,2015-07-15T00:00:00,Low Residential (1-10 units/acre),"One-Family, Restricted Two Family Dwelling Distr",,7073,Single-family detached house,,,,38.86078528,-77.08883619
1110 18th St S,1110 18TH ST S,Under Construction,0,0,0,1,0,,2007-10-31T00:00:00,Low Residential (1-10 units/acre),"One-Family, Restricted Two Family Dwelling Distr",,5574,Single-family detached house,,,,38.8566826,-77.06575973
1100 Block,1124 N STUART ST,Under Construction,0,0,0,12,0,2015-12-12T00:00:00,2017-06-28T00:00:00,Low-Medium Residential,Residential Town House Dwelling District,,25000,Townhouse,44,4,27,38.88480784,-77.11230318
1128 S  Frederick St,1128 S  FREDERICK ST,Under Construction,0,0,0,1,0,,2016-10-17T00:00:00,Low Residential (1-10 units/acre),One-Family Dwelling District,,,Single-family detached house,,,,38.85040841,-77.11429793
PenPlace (Pentagon City PDSP Parcel 1D - Remaining Allocation),1197 S FERN ST,Approved (Not Under Construction),1809000,50000,0,0,300,2013-09-21T00:00:00,,,,,,Highrise (4+ stories),,,,38.86277083,-77.05624974
The Trove (Wellington Apartments),1201 S RHODES ST,Approved (Not Under Construction),0,0,0,402,0,2016-07-20T00:00:00,,Medium Residential,Apartment Dwelling District,,,Highrise (4+ stories),,,,38.86311445,-77.07545038
1209 S Pierce St,1209 S  PIERCE ST,Under Construction,0,0,0,1,0,,2017-01-30T00:00:00,Low Residential (1-10 units/acre),"One-Family, Restricted Two Family Dwelling Distr",,,Single-family detached house,,,,38.86362271,-77.0709397
Central Place (Office),1213 WILSON BLVD,Under Construction,570549,10979,9072,0,0,2007-05-05T00:00:00,2015-10-01T00:00:00,,,,,,,,,38.89532097,-77.07108159
Thomas Jefferson Elementary School,125 S OLD GLEBE RD,Approved (Not Under Construction),0,0,111350,0,0,2017-04-22T00:00:00,,Public,Special District,,,,,,,38.86972728,-77.09677931
132 N  Fillmore St,132 N  FILLMORE ST,Under Construction,0,0,0,1,0,,2015-06-25T00:00:00,Low Residential (1-10 units/acre),One-Family Dwelling District,,5000,Single-family detached house,,,,38.87632946,-77.09086341
132 N  Fillmore St,132 N  FILLMORE ST,Under Construction,0,0,0,1,0,,2015-06-25T00:00:00,Low Residential (1-10 units/acre),One-Family Dwelling District,,5000,Single-family detached house,,,,38.87632946,-77.09086341
Pentagon City PDSP (Parcel 3/Metropolitan Park - Remaining Allocation),1400 S EADS S,Approved (Not Under Construction),0,23818,0,1403,0,2013-09-21T00:00:00,,,,,,Highrise (4+ stories),,,,38.8614689,-77.05467761
Metropolitan Park Six,1400 S EADS ST,Approved (Not Under Construction),0,10929,0,590,0,2016-07-16T00:00:00,,High-Med Resid. 3/4 & Med. OAH 1/4,"Commercial Office Building, Hotel and Apartment",,,Highrise (4+ stories),,,472,38.8614689,-77.05467761
1401 Wilson Blvd,1401 WILSON BLVD,Approved (Not Under Construction),513004,55540,0,274,0,2014-06-14T00:00:00,,High Office-Apartment-Hotel,,,,Highrise (4+ stories),,,,38.89554059,-77.07358928
Key & Nash,1411 KEY BLVD,Under Construction,0,0,0,63,0,2016-01-23T00:00:00,2017-04-01T00:00:00,Low-Medium Residential,Apartment Dwelling District,,38020,Highrise (4+ stories),66,7,64,38.89663204,-77.07383791
1509 N Kentucky St,1509 N KENTUCKY ST,Under Construction,0,0,0,1,0,,2017-08-10T00:00:00,Low Residential (1-10 units/acre),One-Family Dwelling District,,,Single-family detached house,,,,38.88452814,-77.13613026
1514 N Garfield St,1514 N GARFIELD ST,Under Construction,0,0,0,1,0,,2014-10-09T00:00:00,Low Residential (1-10 units/acre),One-Family Dwelling District,,11540,Single-family detached house,,,,38.88937275,-77.09441952
1515 N Garfield St,1515 N  GARFIELD ST,Under Construction,0,0,0,1,0,,2017-03-29T00:00:00,Low Residential (1-10 units/acre),One-Family Dwelling District,,,Single-family detached house,,,,38.88936756,-77.09405317
1523 Mckinley Rd,1523 MCKINLEY RD,Under Construction,0,0,0,1,0,,2017-07-07T00:00:00,Low Residential (1-10 units/acre),One-Family Dwelling District,,,Single-family detached house,,,,38.88450852,-77.14257443
1548 N Edgewood St,1548 N EDGEWOOD ST,Under Construction,0,0,0,1,0,,2017-07-21T00:00:00,Low Residential (1-10 units/acre),One-Family Dwelling District,,,Single-family detached house,,,,38.89064142,-77.09237665
1555 Wilson Blvd,1555 WILSON BLVD,Approved (Not Under Construction),0,25200,0,892,0,2017-02-25T00:00:00,,"Commercial Off. Bldg, Hotel and Multiple-Family Dwelling","Commercial Off. Bldg, Hotel and Multiple-Family",,,,,,,38.89489403,-77.07603329
1563 N Bryan St,1563 N BRYAN ST,Under Construction,0,0,0,1,0,,2017-09-22T00:00:00,Low Residential (1-10 units/acre),One-Family Dwelling District,,,Single-family detached house,,,,38.89135172,-77.09026788
Wilson School,1601 WILSON BLVD,Approved (Not Under Construction),0,0,180000,0,0,2017-02-25T00:00:00,,Public,Special District,,,,,,93,38.89458328,-77.07730672
1610 N  Monroe St,1610 N MONROE ST,Under Construction,0,0,0,1,0,,2015-10-21T00:00:00,Low Residential (1-10 units/acre),One-Family Dwelling District,,,Single-family detached house,,,,38.89160127,-77.10438605
Hilton Homewood Suites,1700 LEE HIGHWAY,Under Construction,0,0,0,0,168,2013-06-15T00:00:00,2016-09-09T00:00:00,,"Commercial Office Building, Hotel and Apartment",,,,,,,38.8974285,-77.0789533
1728 N  Barton St,1728 N  BARTON ST,Under Construction,0,0,0,1,0,,2016-10-19T00:00:00,Low Residential (1-10 units/acre),One-Family Dwelling District,,,Single-family detached house,,,,38.89367883,-77.0895496
1770 Crystal Dr Expansion,1750 CRYSTAL DR,Approved (Not Under Construction),11642,0,0,0,0,2015-12-12T00:00:00,,High Office-Apartment-Hotel,"Commercial Off. Bldg, Hotel and Multiple-Family",,,,,,,38.85828669,-77.04958616
1801 N  Nelson St,1801 N  NELSON ST,Under Construction,0,0,0,1,0,,2017-05-17T00:00:00,Low Residential (1-10 units/acre),One-Family Dwelling District,,,Single-family detached house,,,,38.8934636,-77.1050134
1801 N Bryan St,1801 N BRYAN ST,Under Construction,0,0,0,1,0,,2017-08-28T00:00:00,Low Residential (1-10 units/acre),One-Family Dwelling District,,,Single-family detached house,,,,38.89383027,-77.09017125
1801 N Quinn St,1801 N QUINN ST,Approved (Not Under Construction),0,0,0,249,0,2017-02-25T00:00:00,,Low-Medium Residential,Apartment Dwelling District,,,Highrise (4+ stories),,,,38.89551024,-77.07802072
1809 N Monroe St,1809 N  MONROE ST,Under Construction,0,0,0,1,0,,2017-03-22T00:00:00,Low Residential (1-10 units/acre),One-Family Dwelling District,,,Single-family detached house,,,,38.89357302,-77.10381359
1813 N  Quantico St,1813 N  QUANTICO ST,Under Construction,0,0,0,1,0,,2017-04-07T00:00:00,Low Residential (1-10 units/acre),One-Family Dwelling District,,,Single-family detached house,,,,38.8852679,-77.1506686
1845 N Columbus St,1845 N  COLUMBUS ST,Under Construction,0,0,0,1,0,,2017-03-23T00:00:00,Low Residential (1-10 units/acre),One-Family Dwelling District,,,Single-family detached house,,,,38.89231051,-77.12528365
1847 N Columbus St,1847 N  COLUMBUS ST,Under Construction,0,0,0,1,0,,2017-03-23T00:00:00,Low Residential (1-10 units/acre),One-Family Dwelling District,,,Single-family detached house,,,,38.89236158,-77.12546814
Rosslyn Gateway PDSP - FSP (Phase 1 - Office Building),1901 FT MYER DR,Approved (Not Under Construction),490056,8688,0,0,0,2012-07-21T00:00:00,,,,,,,,,,38.89739,-77.0720009
1933 S  Lorton St,1933 S  LORTON ST,Under Construction,0,0,0,1,0,,2016-10-12T00:00:00,Low Residential (11-15 units/acre),Two-Family and Town House Dwelling District,,,Single-family detached house,,,,38.85204937,-77.08920297
1940 N Edison St,1940 N  EDISON ST,Under Construction,0,0,0,1,0,,2017-01-11T00:00:00,Low Residential (1-10 units/acre),One-Family Dwelling District,,,Single-family detached house,,,,38.89321943,-77.128679
1944 N Edison St,1944 N  EDISON ST,Under Construction,0,0,0,1,0,,2017-01-11T00:00:00,Low Residential (1-10 units/acre),One-Family Dwelling District,,,Single-family detached house,,,,38.89330932,-77.12877756
2000 Clarendon Blvd,2000 CLARENDON BLVD,Approved (Not Under Construction),0,1921,0,90,0,2016-06-18T00:00:00,,High Office-Apartment-Hotel,"Commercial Off. Bldg, Hotel and Multiple-Family",,,Highrise (4+ stories),,,112,38.89148392,-77.08208956
2003 S Lincoln St,2003 S LINCOLN ST,Under Construction,0,0,0,1,0,,2017-07-10T00:00:00,Low Residential (11-15 units/acre),Two-Family and Town House Dwelling District,,,Duplex,,,,38.85141554,-77.08758796
2005 S Lincoln St,2005 S LINCOLN ST,Under Construction,0,0,0,1,0,,2017-07-10T00:00:00,Low Residential (11-15 units/acre),Two-Family and Town House Dwelling District,,,Duplex,,,,38.85132685,-77.0875257
2008 S Monroe St,2008 S MONROE ST,Under Construction,0,0,0,1,0,,2007-10-09T00:00:00,Low Residential (11-15 units/acre),Two-Family and Town House Dwelling District,,6180,Single-family detached house,,,,38.85126989,-77.09037147
2014 S Langley St,2014 S LANGLEY ST,Under Construction,0,0,0,1,0,,2017-09-28T00:00:00,Low Residential (11-15 units/acre),Two-Family and Town House Dwelling District,,,Single-family detached house,,,,38.85145101,-77.08907676
2039 S  Langley St,2039 S  LANGLEY ST,Under Construction,0,0,0,1,0,,2016-09-07T00:00:00,Low Residential (11-15 units/acre),Two-Family and Town House Dwelling District,,,Single-family detached house,,,,38.850586,-77.088678
2041 S  Langley St,2041 S  LANGLEY ST,Under Construction,0,0,0,1,0,,2016-09-07T00:00:00,Low Residential (11-15 units/acre),Two-Family and Town House Dwelling District,,,Single-family detached house,,,,38.8508427,-77.0889067
2115 S  Arlington Ridge Rd,2115 S  ARLINGTON RIDGE RD,Under Construction,0,0,0,1,0,,2017-04-11T00:00:00,Low Residential (1-10 units/acre),One-Family Dwelling District,,,Single-family detached house,,,,38.854191,-77.067842
2121 S  Lowell St,2121 S  LOWELL ST,Under Construction,0,0,0,1,0,,2016-10-13T00:00:00,Low Residential (11-15 units/acre),Two-Family and Town House Dwelling District,,,Single-family detached house,,,,38.84944673,-77.08801004
2126 N Rolfe St,2126 N ROLFE ST,Under Construction,0,0,0,1,0,,2014-04-29T00:00:00,Low Residential (1-10 units/acre),One-Family Dwelling District,,8750,Single-family detached house,,,,38.89972996,-77.08099109
2136 N Pollard St,2136 N  POLLARD ST,Under Construction,0,0,0,1,0,,2017-03-06T00:00:00,Low Residential (1-10 units/acre),One-Family Dwelling District,,,Single-family detached house,,,,38.89815194,-77.10688053
2213 N Kentucky St,2213 N KENTUCKY ST,Under Construction,0,0,0,1,0,,2017-09-06T00:00:00,Low Residential (1-10 units/acre),One-Family Dwelling District,,,Single-family detached house,,,,38.89261204,-77.14130684
2226 N Kensington St,2226 N KENSINGTON ST,Under Construction,0,0,0,1,0,,2017-08-28T00:00:00,Low Residential (1-10 units/acre),One-Family Dwelling District,,,Single-family detached house,,,,38.89309751,-77.14113776
Greenbrier Village Phase II,2251 N GREENBRIER ST,Approved (Not Under Construction),0,0,0,4,0,2009-10-01T00:00:00,,Low Residential (1-10 units/acre),One-Family Dwelling District,,,Single-family detached house,,,,38.89614053,-77.13564852
2301 N Wakefield St,2301 N WAKEFIELD ST,Under Construction,0,0,0,1,0,,2017-08-25T00:00:00,Low Residential (1-10 units/acre),One-Family Dwelling District,,,Single-family detached house,,,,38.9002764,-77.12022783
2311 Wilson Blvd,2311 WILSON BLVD,Under Construction,149553,14025,8800,0,0,2012-12-08T00:00:00,2017-03-07T00:00:00,High-Medium Residential Mixed-Use,Apartment Dwelling and Commercial District,,,,,,,38.89110558,-77.08671365
2313 N Stuart St,2313 N STUART ST,Under Construction,0,0,0,1,0,,2017-09-19T00:00:00,Low Residential (1-10 units/acre),One-Family Dwelling District,,,Single-family detached house,,,,38.9043308,-77.11399631
2313 N Trenton St,2313 N TRENTON ST,Under Construction,0,0,0,1,0,,2017-08-10T00:00:00,Low Residential (1-10 units/acre),One-Family Dwelling District,,,Single-family detached house,,,,38.90163068,-77.11572432
235 N Edgewood St,235 N  EDGEWOOD ST,Under Construction,0,0,0,1,0,,2017-03-29T00:00:00,Low Residential (1-10 units/acre),One-Family Dwelling District,,,Single-family detached house,,,,38.87846241,-77.08987776
New Century Center Residential,2351 JEFFERSON DAVIS HIGHWAY,Approved (Not Under Construction),0,21836,0,308,0,2017-07-15T00:00:00,,High Office-Apartment-Hotel,"Commercial Off. Bldg, Hotel and Multiple-Family",,,Highrise (4+ stories),,24,242,38.85292164,-77.05048749
2351 N Daniel St,2351 N DANIEL ST,Under Construction,0,0,0,1,0,,2014-03-27T00:00:00,Low Residential (1-10 units/acre),One-Family Dwelling District,,28314,Single-family detached house,,,,38.8990574,-77.09481746
2361 N Edgewood St,2361 N EDGEWOOD ST,Under Construction,0,0,0,1,0,,2013-09-06T00:00:00,Low Residential (1-10 units/acre),One-Family Dwelling District,,31337,Single-family detached house,,,,38.89947664,-77.09577409
2400 Columbia Pike,2400 COLUMBIA PIKE,Approved (Not Under Construction),0,12997,0,105,0,2016-06-18T00:00:00,,Service Commercial,Service Commercial -  Community Business Distric,,,Highrise (4+ stories),,,140,38.8635172,-77.0833002
2407 N Vernon St,2407 N  VERNON ST,Under Construction,0,0,0,1,0,,2017-02-08T00:00:00,Low Residential (1-10 units/acre),One-Family Dwelling District,,,Single-family detached house,,,,38.90457802,-77.11992501
2409 Clardendon Blvd,2409 CLARENDON BLVD,Under Construction,0,0,0,1,0,,2013-12-30T00:00:00,High-Medium Residential Mixed-Use,Service Commercial -  Community Business Distric,,0,Single-family detached house,,,,38.88990911,-77.08813472
2412 N  Utah St,2412 N  UTAH ST,Under Construction,0,0,0,1,0,,2017-04-04T00:00:00,Low Residential (1-10 units/acre),One-Family Dwelling District,,,Single-family detached house,,,,38.9027778,-77.117259
2413 N  Vermont St,2413 N VERMONT ST,Under Construction,0,0,0,1,0,,2015-08-07T00:00:00,Low Residential (1-10 units/acre),One-Family Dwelling District,,,Single-family detached house,,,,38.9055537,-77.11879311
2421 N  Buchanan St,2421 N  BUCHANAN ST,Under Construction,0,0,0,1,0,,2017-06-30T00:00:00,Low Residential (1-10 units/acre),One-Family Dwelling District,,,Single-family detached house,,,,38.9004953,-77.1277011
2428 N Potomac St,2428 N  POTOMAC ST,Under Construction,0,0,0,1,0,,2017-01-03T00:00:00,Low Residential (1-10 units/acre),One-Family Dwelling District,,,Single-family detached house,,,,38.89388233,-77.15272411
2507 9th St N,2507 9TH ST N,Under Construction,0,0,0,1,0,,2007-06-22T00:00:00,Low Residential (1-10 units/acre),"One-Family, Restricted Two Family Dwelling Distr",,4500,Single-family detached house,,,,38.88314719,-77.08799149
2509 N Utah St,2509 N  UTAH ST,Under Construction,0,0,0,1,0,,2017-02-22T00:00:00,Low Residential (1-10 units/acre),One-Family Dwelling District,,,Single-family detached house,,,,38.9056317,-77.11571947
2513 9th St N,2513 9TH ST N,Under Construction,0,0,0,1,0,,2017-03-15T00:00:00,Low Residential (1-10 units/acre),"One-Family, Restricted Two Family Dwelling Distr",,,Single-family detached house,,,,38.88314305,-77.08821818
2523 N Mckinley St,2523 N MCKINLEY ST,Under Construction,0,0,0,1,0,,2017-07-17T00:00:00,Low Residential (1-10 units/acre),One-Family Dwelling District,,,Single-family detached house,,,,38.89558016,-77.14530503
2525 N  Granada St,2525 N GRANADA ST,Under Construction,0,0,0,1,0,,2015-12-04T00:00:00,Low Residential (1-10 units/acre),One-Family Dwelling District,,,Single-family detached house,,,,38.89791292,-77.13625212
Airport Plaza IV,2600 CRYSTAL DR,Approved (Not Under Construction),0,0,0,198,0,1981-01-01T00:00:00,,High Office-Apartment-Hotel,"Commercial Off. Bldg, Hotel and Multiple-Family",,0,Highrise (4+ stories),,,0,38.84967642,-77.051273
2606 N Upshur St,2606 N UPSHUR ST,Under Construction,0,0,0,1,0,,2017-07-26T00:00:00,Low Residential (1-10 units/acre),One-Family Dwelling District,,,Single-family detached house,,,,38.90595701,-77.11733391
2611 N  Powhatan St,2611 N  POWHATAN ST,Under Construction,0,0,0,1,0,,2016-08-24T00:00:00,Low Residential (1-10 units/acre),One-Family Dwelling District,,,Single-family detached house,,,,38.895848,-77.1513109
2611 N  Marcey Rd,2611 N MARCEY RD,Under Construction,0,0,0,1,0,,2015-09-13T00:00:00,Low Residential (1-10 units/acre),One-Family Dwelling District,,,Single-family detached house,,,,38.90782394,-77.11007468
2614 Washington Blvd,2614 WASHINGTON BLVD,Under Construction,0,0,0,1,0,,2013-05-30T00:00:00,,"One-Family, Restricted Two Family Dwelling Distr",,,Single-family detached house,,,,38.878854,-77.089174
2615 N Powhatan St,2615 N POWHATAN ST,Under Construction,0,0,0,1,0,,2016-03-02T00:00:00,Low Residential (1-10 units/acre),One-Family Dwelling District,,5600,Single-family detached house,,,,38.89597991,-77.15130991
2619 N  Rockingham St,2619 N  ROCKINGHAM ST,Under Construction,0,0,0,1,0,,2017-04-04T00:00:00,Low Residential (1-10 units/acre),One-Family Dwelling District,,,Single-family detached house,,,,38.895365,-77.156035
2661 Military Rd,2661 MILITARY RD,Under Construction,0,0,0,1,0,,2017-07-10T00:00:00,Low Residential (1-10 units/acre),One-Family Dwelling District,,,Single-family detached house,,,,38.90868952,-77.11076614
2700 N Buchanan St,2700 N BUCHANAN ST,Under Construction,0,0,0,1,0,,2015-09-09T00:00:00,Low Residential (1-10 units/acre),One-Family Dwelling District,,10010,Single-family detached house,,,,38.90316124,-77.12927996
2701 12Th St S,2701 12TH ST S,Under Construction,0,0,0,1,0,,2016-11-07T00:00:00,Low Residential (1-10 units/acre),"One-Family, Restricted Two Family Dwelling Distr",,,Single-family detached house,,,,38.86128888,-77.08521699
Maserati of Arlington,2710 S  GLEBE RD,Under Construction,0,12578,0,0,0,,2017-02-21T00:00:00,Service Commercial,Service Commercial -  Community Business Distric,,,,,,,38.84450755,-77.07840546
2711 N Edison St,2711 N EDISON ST,Under Construction,0,0,0,1,0,,2017-07-14T00:00:00,Low Residential (1-10 units/acre),One-Family Dwelling District,,,Single-family detached house,,,,38.90196146,-77.13678568
2723 S  June St,2723 S  JUNE ST,Under Construction,0,0,0,1,0,,2017-05-03T00:00:00,Low Residential (1-10 units/acre),One-Family Dwelling District,,,Single-family detached house,,,,38.8465993,-77.0648005
28 S Pershing Dr,28 S PERSHING DR,Under Construction,0,0,0,1,0,,2017-03-22T00:00:00,Low Residential (1-10 units/acre),One-Family Dwelling District,,,Single-family detached house,,,,38.86703791,-77.11090227
The Berkeley,2900 S GLEBE RD,Approved (Not Under Construction),0,0,0,257,0,2016-05-17T00:00:00,,Low-Medium Residential,Apartment Dwelling District,,,Garden (Less than 4 stories),,,241,38.8444288,-77.06901669
2910 2Nd Rd N,2910 2ND RD N,Under Construction,0,0,0,1,0,,2016-11-30T00:00:00,Low Residential (1-10 units/acre),One-Family Dwelling District,,,Single-family detached house,,,,38.87699459,-77.09147961
300 N  Jefferson St,300 N  JEFFERSON ST,Under Construction,0,0,0,1,0,,2017-06-05T00:00:00,Low Residential (1-10 units/acre),One-Family Dwelling District,,,Single-family detached house,,,,38.8708306,-77.1257665
3010 7th St N,3010 7TH ST N,Under Construction,0,0,0,1,0,,2015-07-30T00:00:00,Low Residential (1-10 units/acre),One-Family Dwelling District,,4917,Single-family detached house,,,,38.88079194,-77.09403103
3012 12th St S,3012 12TH ST S,Under Construction,0,0,0,1,0,,2017-01-11T00:00:00,Low Residential (1-10 units/acre),"One-Family, Restricted Two Family Dwelling Distr",,,Single-family detached house,,,,38.86035831,-77.08800413
3013 N  Underwood St,3013 N UNDERWOOD ST,Under Construction,0,0,0,1,0,,2016-04-26T00:00:00,Low Residential (1-10 units/acre),One-Family Dwelling District,,,Single-family detached house,,,,38.89653726,-77.16500448
3018 N Westmorland St,3018 N WESTMORELAND ST,Under Construction,0,0,0,1,0,,2013-10-04T00:00:00,Low Residential (1-10 units/acre),One-Family Dwelling District,,7822,Single-family detached house,,,,38.89634384,-77.16828836
3025 N Toronto St,3025 N TORONTO ST,Under Construction,0,0,0,1,0,,2017-08-11T00:00:00,Low Residential (1-10 units/acre),One-Family Dwelling District,,,Single-family detached house,,,,38.89901476,-77.16227793
3032 N Nottingham St,3032 N NOTTINGHAM ST,Under Construction,0,0,0,1,0,,2017-07-26T00:00:00,Low Residential (1-10 units/acre),One-Family Dwelling District,,,Single-family detached house,,,,38.90247906,-77.15142753
Abingdon Elementary School Addition,3035 S ABINGDON ST,Under Construction,0,0,30000,0,0,2015-09-19T00:00:00,2016-07-22T00:00:00,Public,Special District,,,,,,0,38.83983727,-77.09609176
3038 N Peary St,3038 N PEARY ST,Under Construction,0,0,0,1,0,,2016-02-26T00:00:00,Low Residential (1-10 units/acre),One-Family Dwelling District,,10450,Single-family detached house,,,,38.91709664,-77.1134616
3080 N  Pollard St,3080 N  POLLARD ST,Under Construction,0,0,0,1,0,,2017-05-18T00:00:00,Low Residential (1-10 units/acre),One-Family Dwelling District,,,Single-family detached house,,,,38.9143096,-77.1148886
3106 N  Taylor St,3106 N  TAYLOR ST,Under Construction,0,0,0,1,0,,2017-04-14T00:00:00,Low Residential (1-10 units/acre),One-Family Dwelling District,,,Single-family detached house,,,,38.9111864,-77.1183352
3121 24th St S,3121 24TH ST S,Under Construction,0,0,0,1,0,,2013-12-06T00:00:00,Service Commercial,Two-Family and Town House Dwelling District,,3401,Single-family detached house,,,,38.84881044,-77.08360652
3132 10Th St N,3132 10TH ST N,Under Construction,0,0,0,1,0,,2016-05-11T00:00:00,Service Commercial,General Commercial District,,,Single-family detached house,,,,38.88419773,-77.09595635
3200 N George Mason Dr,3200 N GEORGE MASON DR,Under Construction,0,0,0,1,0,,2015-12-14T00:00:00,Low Residential (1-10 units/acre),One-Family Dwelling District,,10175,Single-family detached house,,,,38.90666738,-77.13946041
3313 John Marshall Dr,3313 JOHN MARSHALL DR,Under Construction,0,0,0,1,0,,2017-04-10T00:00:00,Low Residential (1-10 units/acre),One-Family Dwelling District,,,Single-family detached house,,,,38.90524026,-77.15074798
3313 N  Pocomoke St,3313 N  POCOMOKE ST,Under Construction,0,0,0,1,0,,2017-06-21T00:00:00,Low Residential (1-10 units/acre),One-Family Dwelling District,,,Single-family detached house,,,,38.9020073,-77.1542484
Long Bridge Park Aquatics and Fitness Facility (Phase I),333 LONG BRIDGE DR,Approved (Not Under Construction),0,0,120420,0,0,2013-03-16T00:00:00,,Public,Public Service District,,1083470,,,,360,38.86957043,-77.04455995
3400 Military Rd,3400 MILITARY RD,Under Construction,0,0,0,1,0,,2016-05-19T00:00:00,Low Residential (1-10 units/acre),One-Family Dwelling District,,,Single-family detached house,,,,38.9154507,-77.11915909
George Mason University - Phase III,3401 FAIRFAX DR,Approved (Not Under Construction),90000,11000,183000,0,0,1994-01-01T00:00:00,,Public,General Commercial District,,130680,,,,1100,38.88511428,-77.10024221
3411 N  Woodrow St,3411 N  WOODROW ST,Under Construction,0,0,0,1,0,,2016-11-01T00:00:00,Low Residential (1-10 units/acre),One-Family Dwelling District,,,Single-family detached house,,,,38.91377647,-77.1275676
3412 3rd St N,3412 3RD ST N,Under Construction,0,0,0,1,0,,2017-02-10T00:00:00,Low Residential (1-10 units/acre),One-Family Dwelling District,,,Single-family detached house,,,,38.87578772,-77.09851691
3422 N  Abingdon St,3422 N  ABINGDON ST,Under Construction,0,0,0,1,0,,2016-10-21T00:00:00,Low Residential (1-10 units/acre),One-Family Dwelling District,,,Single-family detached house,,,,38.91313048,-77.13120298
3506 N Dinwiddie St,3506 N DINWIDDIE ST,Under Construction,0,0,0,1,0,,2017-07-06T00:00:00,Low Residential (1-10 units/acre),One-Family Dwelling District,,,Single-family detached house,,,,38.91358315,-77.13921638
3507 16th St S,3507 16TH ST S,Under Construction,0,0,0,1,0,,2007-05-30T00:00:00,Low Residential (1-10 units/acre),"One-Family, Restricted Two Family Dwelling Distr",,6050,Single-family detached house,,,,38.85618297,-77.09032235
3507 N Dinwiddie St,3507 N DINWIDDIE ST,Under Construction,0,0,0,1,0,,2012-08-24T00:00:00,Low Residential (1-10 units/acre),One-Family Dwelling District,,10030,Single-family detached house,,,,38.91346212,-77.13874857
3515 14th St N,3515 14TH ST N,Under Construction,0,0,0,1,0,,2011-03-14T00:00:00,,"One-Family, Restricted Two Family Dwelling Distr",,6295,Single-family detached house,,,,38.88858594,-77.10406946
3527 N  Rockingham St,3527 N  ROCKINGHAM ST,Under Construction,0,0,0,1,0,,2017-04-19T00:00:00,Low Residential (1-10 units/acre),One-Family Dwelling District,,,Single-family detached house,,,,38.9025149,-77.1577722
3530 N Utah St,3530 N  UTAH ST,Under Construction,0,0,0,1,0,,2017-02-15T00:00:00,Low Residential (1-10 units/acre),One-Family Dwelling District,,,Single-family detached house,,,,38.9176178,-77.12422645
3530 Roberts Ln,3530 ROBERTS LN,Under Construction,0,0,0,1,0,,2017-02-01T00:00:00,Low Residential (1-10 units/acre),One-Family Dwelling District,,,Single-family detached house,,,,38.92010092,-77.11253292
3541 N  Utah St,3541 N UTAH ST,Under Construction,0,0,0,1,0,,2015-12-11T00:00:00,Low Residential (1-10 units/acre),One-Family Dwelling District,,,Single-family detached house,,,,38.91785059,-77.12351416
3600 N  Woodstock St,3600 N  WOODSTOCK ST,Under Construction,0,0,0,1,0,,2016-06-13T00:00:00,Low Residential (1-10 units/acre),One-Family Dwelling District,,,Single-family detached house,,,,38.91562398,-77.13188744
3604 17th St N,3604 17TH ST N,Under Construction,0,0,0,1,0,,2017-05-03T00:00:00,Low Residential (1-10 units/acre),One-Family Dwelling District,,,Single-family detached house,,,,38.89196968,-77.10430057
3606 N Nelson St,3606 N NELSON ST,Under Construction,0,0,0,1,0,,2017-09-15T00:00:00,Low Residential (1-10 units/acre),One-Family Dwelling District,,,Single-family detached house,,,,38.92004017,-77.1153659
3703 N Randolph St,3703 N RANDOLPH ST,Under Construction,0,0,0,1,0,,2015-03-16T00:00:00,Low Residential (1-10 units/acre),One-Family Dwelling District,,,Single-family detached house,,,,38.92092484,-77.12163286
3715 N Wakefield St,3715 N WAKEFIELD ST,Under Construction,0,0,0,1,0,,2017-08-03T00:00:00,Low Residential (1-10 units/acre),One-Family Dwelling District,,,Single-family detached house,,,,38.91717663,-77.12938003
3737 N  Vermont St,3737 N  VERMONT ST,Under Construction,0,0,0,1,0,,2017-05-19T00:00:00,Low Residential (1-10 units/acre),One-Family Dwelling District,,,Single-family detached house,,,,38.9187576,-77.1278994
3806 N  Stafford St,3806 N  STAFFORD ST,Under Construction,0,0,0,1,0,,2017-06-30T00:00:00,Low Residential (1-10 units/acre),One-Family Dwelling District,,,Single-family detached house,,,,38.922345,-77.122882
3838 N Cathedral Lane,3838 N CATHEDRAL LN,Approved (Not Under Construction),4590,0,0,0,0,2013-04-20T00:00:00,,,"Commercial Office Building, Hotel and Apartment",,,,,,,38.870734,-77.1023192
3905 N  Upland St,3905 N  UPLAND ST,Under Construction,0,0,0,1,0,,2016-09-28T00:00:00,Low Residential (1-10 units/acre),One-Family Dwelling District,,,Single-family detached house,,,,38.922225,-77.1308675
3909 16th St S,3909 16TH ST S,Under Construction,0,0,0,1,0,,2016-08-18T00:00:00,Low Residential (1-10 units/acre),One-Family Dwelling District,,,Single-family detached house,,,,38.85465739,-77.09581537
4007 Vacation Ln,4007 VACATION LN,Under Construction,0,0,0,1,0,,2007-11-16T00:00:00,Low Residential (1-10 units/acre),One-Family Dwelling District,,9918,Single-family detached house,,,,38.90011407,-77.10811325
4030 18th St S,4030 18TH ST S,Under Construction,0,0,0,1,0,,2017-06-05T00:00:00,Low Residential (1-10 units/acre),One-Family Dwelling District,,,Single-family detached house,,,,38.85160571,-77.09698915
4036 35Th St N,4036 35TH ST N,Under Construction,0,0,0,1,0,,2017-08-28T00:00:00,Low Residential (1-10 units/acre),One-Family Dwelling District,,,Single-family detached house,,,,38.91710713,-77.12033927
407 Chain Bridge Rd,407 CHAIN BRIDGE RD,Under Construction,0,0,0,1,0,,2015-01-08T00:00:00,Low Residential (1-10 units/acre),One-Family Dwelling District,,83539,Single-family detached house,,,,38.93332512,-77.11962478
Stratford School Addition,4100 VACATION LN,Approved (Not Under Construction),0,0,40000,0,0,2017-03-18T00:00:00,,Public,Special District,,,,,,,38.90050087,-77.11121215
Ballston Quarter Residential Building,4100 WILSON BLVD,Under Construction,0,66475,0,406,0,2015-11-14T00:00:00,2017-08-07T00:00:00,Medium Office-Apartment-Hotel,"Commercial Office Building, Hotel and Apartment",,,Highrise (4+ stories),,,,38.87968499,-77.10936571
4115 34Th St N,4115 34TH ST N,Under Construction,0,0,0,1,0,,2016-12-21T00:00:00,Low Residential (1-10 units/acre),One-Family Dwelling District,,,Single-family detached house,,,,38.91604877,-77.12135612
4116 40th St N,4116 40TH ST N,Under Construction,0,0,0,1,0,,2017-04-18T00:00:00,Low Residential (1-10 units/acre),One-Family Dwelling District,,,Single-family detached house,,,,38.92627122,-77.11977602
Row Homes at Ballston,4210 WASHINGTON BLVD,Under Construction,0,0,0,2,0,2013-12-14T00:00:00,2016-12-16T00:00:00,Low-Medium Residential,Residential Town House Dwelling District,,,Townhouse,,,,38.88545155,-77.11166545
Ballston Station Ballston Central United Methodist Church,4223 N FAIRFAX DR,Approved (Not Under Construction),0,0,23499,119,0,2017-02-28T00:00:00,,High-Medium Residential Mixed Use,Service Commercial -  Community Business Distric,,,Highrise (4+ stories),,,,38.8825072,-77.1114928
423 N  Fillmore St,423 N  FILLMORE ST,Under Construction,0,0,0,1,0,,2017-04-07T00:00:00,Low Residential (1-10 units/acre),One-Family Dwelling District,,,Single-family detached house,,,,38.8796203,-77.0919359
Ballston Quarter Expansion,4238 WILSON BLVD,Approved (Not Under Construction),0,11854,0,0,0,2015-11-14T00:00:00,,Medium Office-Apartment-Hotel,"Commercial Office Building, Hotel and Apartment",,,,,,,38.87963073,-77.11089949
4304 4th St S,4304 4TH ST S,Under Construction,0,0,0,1,0,,2015-09-01T00:00:00,Low Residential (1-10 units/acre),One-Family Dwelling District,,20108,Single-family detached house,,,,38.86436058,-77.10721012
4307 35Th St N,4307 35TH ST N,Under Construction,0,0,0,1,0,,2017-08-18T00:00:00,Low Residential (1-10 units/acre),One-Family Dwelling District,,,Single-family detached house,,,,38.91664893,-77.12354939
4307 37th Rd N,4307 37TH RD N,Under Construction,0,0,0,1,0,,2014-09-24T00:00:00,Low Residential (1-10 units/acre),One-Family Dwelling District,,14482,Single-family detached house,,,,38.91886235,-77.12344563
4404 20Th Rd N,4404 20TH RD N,Under Construction,0,0,0,1,0,,2017-09-11T00:00:00,Low Residential (1-10 units/acre),One-Family Dwelling District,,,Single-family detached house,,,,38.89556978,-77.1147612
4407 6th St S,4407 6TH ST S,Under Construction,0,0,0,1,0,,2012-01-26T00:00:00,Low Residential (1-10 units/acre),One-Family Dwelling District,,15707,Single-family detached house,,,,38.86315746,-77.10758005
4408 33rd Rd N,4408 33RD RD N,Under Construction,0,0,0,1,0,,2014-03-04T00:00:00,Low Residential (1-10 units/acre),One-Family Dwelling District,,10892,Single-family detached house,,,,38.91413095,-77.12424647
4452 20th Rd N,4452 20TH RD N,Under Construction,0,0,0,1,0,,2017-06-08T00:00:00,Low Residential (1-10 units/acre),One-Family Dwelling District,,,Single-family detached house,,,,38.89625873,-77.11680947
4601-4607 Old Dominion Dr,4601 OLD DOMINION DR,Approved (Not Under Construction),6272,5570,0,12,0,2006-02-25T00:00:00,,Service Commercial,Service Commercial -  Community Business Distric,,12666,Garden (Less than 4 stories),45,4,58,38.89902372,-77.11983575
4610 N Carlin Springs Rd,4610 N CARLIN SPRINGS RD,Under Construction,0,0,0,1,0,,2017-09-28T00:00:00,Low Residential (1-10 units/acre),One-Family Dwelling District,,,Single-family detached house,,,,38.87561861,-77.11548614
4614 22nd St N,4614 22ND ST N,Under Construction,0,0,0,1,0,,2017-03-20T00:00:00,Low Residential (1-10 units/acre),One-Family Dwelling District,,,Single-family detached house,,,,38.89917862,-77.12059481
4664 34th St N,4664 34TH ST N,Under Construction,0,0,0,1,0,,2016-01-13T00:00:00,Low Residential (1-10 units/acre),One-Family Dwelling District,,12484,Single-family detached house,,,,38.91254173,-77.12939385
4674 25th St N,4674 25TH ST N,Under Construction,0,0,0,1,0,,2017-06-07T00:00:00,Low Residential (1-10 units/acre),One-Family Dwelling District,,,Single-family detached house,,,,38.90243809,-77.12424921
4707 Columbia Pike,4707 COLUMBIA PIKE,Under Construction,0,8000,0,73,0,2014-12-19T00:00:00,2017-04-01T00:00:00,Service Commercial,Service Commercial -  Community Business Distric,,,Garden (Less than 4 stories),,,,38.85731201,-77.10811898
4707 Columbia Pike,4707 COLUMBIA PIKE,Under Construction,0,8000,0,73,0,2014-12-19T00:00:00,2017-04-01T00:00:00,Service Commercial,Service Commercial -  Community Business Distric,,,Garden (Less than 4 stories),,,,38.85731201,-77.10811898
4722 16Th Rd N,4722 16TH RD N,Under Construction,0,0,0,1,0,,2017-09-20T00:00:00,Low Residential (1-10 units/acre),One-Family Dwelling District,,,Single-family detached house,,,,38.88950408,-77.12166654
4743 Williamsburg Blvd,4743 WILLIAMSBURG BLVD,Under Construction,0,0,0,1,0,,2017-08-16T00:00:00,Low Residential (1-10 units/acre),One-Family Dwelling District,,,Single-family detached house,,,,38.91539289,-77.13741833
4756 33rd St N,4756 33RD ST N,Under Construction,0,0,0,1,0,,2016-07-25T00:00:00,Low Residential (1-10 units/acre),One-Family Dwelling District,,,Single-family detached house,,,,38.90903848,-77.13278641
4807 11th St N,4807 11TH ST N,Under Construction,0,0,0,1,0,,2015-10-01T00:00:00,Low Residential (1-10 units/acre),One-Family Dwelling District,,,Single-family detached house,,,,38.88415519,-77.12124914
4818 37Th St N,4818 37TH ST N,Under Construction,0,0,0,1,0,,2017-09-12T00:00:00,Low Residential (1-10 units/acre),One-Family Dwelling District,,,Single-family detached house,,,,38.91611844,-77.13765538
4836 33Rd Rd N,4836 33RD RD N,Under Construction,0,0,0,1,0,,2016-10-17T00:00:00,Low Residential (1-10 units/acre),One-Family Dwelling District,,,Single-family detached house,,,,38.91027395,-77.13460341
4901 16Th Rd N,4901 16TH RD N,Under Construction,0,0,0,1,0,,2017-09-22T00:00:00,Low Residential (1-10 units/acre),One-Family Dwelling District,,,Single-family detached house,,,,38.88940007,-77.12428346
493 N Abingdon St,493 N ABINGDON ST,Under Construction,0,0,0,1,0,,2017-09-14T00:00:00,Low Residential (1-10 units/acre),One-Family Dwelling District,,,Single-family detached house,,,,38.87527054,-77.11536363
497 N Abingdon St,497 N ABINGDON ST,Under Construction,0,0,0,1,0,,2017-09-14T00:00:00,Low Residential (1-10 units/acre),One-Family Dwelling District,,,Single-family detached house,,,,38.87540873,-77.11568039
5001 34th St N,5001 34TH ST N,Under Construction,0,0,0,1,0,,2015-09-16T00:00:00,Low Residential (1-10 units/acre),One-Family Dwelling District,,,Single-family detached house,,,,38.91197971,-77.1395593
5021 N Carlin Springs Rd,5021 N  CARLIN SPRINGS RD,Under Construction,0,0,0,1,0,,2017-01-25T00:00:00,Low Residential (1-10 units/acre),One-Family Dwelling District,,,Single-family detached house,,,,38.87398585,-77.11744605
5032 25th Rd N,5032 25TH RD N,Under Construction,0,0,0,1,0,,2016-03-02T00:00:00,Low Residential (1-10 units/acre),One-Family Dwelling District,,16711,Single-family detached house,,,,38.89946198,-77.13264729
5041 36Th St N,5041 36TH ST N,Under Construction,0,0,0,1,0,,2017-08-29T00:00:00,Low Residential (1-10 units/acre),One-Family Dwelling District,,,Single-family detached house,,,,38.91565257,-77.14017208
5116 37th St N,5116 37TH ST N,Under Construction,0,0,0,1,0,,2017-06-07T00:00:00,Low Residential (1-10 units/acre),One-Family Dwelling District,,,Single-family detached house,,,,38.91131507,-77.14571564
5218 12th St N,5218 12TH ST N,Under Construction,0,0,0,1,0,,2015-02-12T00:00:00,Low Residential (1-10 units/acre),One-Family Dwelling District,,8250,Single-family detached house,,,,38.88362606,-77.12873682
5219 26th St N,5219 26TH ST N,Under Construction,0,0,0,1,0,,2010-08-06T00:00:00,Low Residential (1-10 units/acre),One-Family Dwelling District,,6881,Single-family detached house,,,,38.89976748,-77.13687892
5249 32Nd St N,5249 32ND ST N,Under Construction,0,0,0,1,0,,2017-06-05T00:00:00,Low Residential (1-10 units/acre),One-Family Dwelling District,,,Single-family detached house,,,,38.9061342,-77.14308717
531 26th St N,5311 26TH ST N,Under Construction,0,0,0,1,0,,2017-03-21T00:00:00,Low Residential (1-10 units/acre),One-Family Dwelling District,,,Single-family detached house,,,,38.8988887,-77.13922181
5312 36th St N,5312 36TH ST N,Under Construction,0,0,0,1,0,,2017-01-23T00:00:00,Low Residential (1-10 units/acre),One-Family Dwelling District,,,Single-family detached house,,,,38.90812118,-77.14870181
5500 36th St N,5500 36TH ST N,Under Construction,0,0,0,1,0,,2017-06-09T00:00:00,Low Residential (1-10 units/acre),One-Family Dwelling District,,,Single-family detached house,,,,38.90734488,-77.15075411
5502 16Th St N,5502 16TH ST N,Under Construction,0,0,0,1,0,,2016-11-03T00:00:00,Low Residential (1-10 units/acre),One-Family Dwelling District,,,Single-family detached house,,,,38.88692498,-77.13107803
5601 Williamsburg Blvd,5601 WILLIAMSBURG BLVD,Under Construction,0,0,0,1,0,,2017-04-18T00:00:00,Low Residential (1-10 units/acre),One-Family Dwelling District,,,Single-family detached house,,,,38.90688724,-77.14825411
5614 33Rd St N,5614 33RD ST N,Under Construction,0,0,0,1,0,,2017-04-04T00:00:00,Low Residential (1-10 units/acre),One-Family Dwelling District,,,Single-family detached house,,,,38.90447049,-77.14796506
5615 35th Rd N,5615 35TH RD N,Under Construction,0,0,0,1,0,,2017-05-22T00:00:00,Low Residential (1-10 units/acre),One-Family Dwelling District,,,Single-family detached house,,,,38.90734669,-77.14961049
5617 4th St S,5617 4TH ST S,Under Construction,0,0,0,1,0,,2017-05-03T00:00:00,Low Residential (1-10 units/acre),One-Family Dwelling District,,,Single-family detached house,,,,38.8631663,-77.12483721
5619 4th St S,5619 4TH ST S,Under Construction,0,0,0,1,0,,2017-05-03T00:00:00,Low Residential (1-10 units/acre),One-Family Dwelling District,,,Single-family detached house,,,,38.86317552,-77.12500971
5636 5Th St N,5636 5TH ST N,Under Construction,0,0,0,1,0,,2016-10-21T00:00:00,Low Residential (1-10 units/acre),One-Family Dwelling District,,,Single-family detached house,,,,38.87170705,-77.12778078
Arlington Row Townhomes,5708 11TH RD N,Under Construction,0,0,0,25,0,,2016-12-08T00:00:00,Low-Medium Residential,Apartment Dwelling District,,,Townhouse,,,,38.88176754,-77.13427852
5723 28th St N,5723 28TH ST N,Under Construction,0,0,0,1,0,,2016-08-08T00:00:00,Low Residential (1-10 units/acre),One-Family Dwelling District,,,Single-family detached house,,,,38.90004427,-77.14596494
5727 28th St N,5727 28TH ST N,Under Construction,0,0,0,1,0,,2016-08-08T00:00:00,Low Residential (1-10 units/acre),One-Family Dwelling District,,,Single-family detached house,,,,38.90009016,-77.14618738
604 N Jackson St,604 N JACKSON ST,Under Construction,0,0,0,1,0,,2017-08-22T00:00:00,Low Residential (1-10 units/acre),One-Family Dwelling District,,,Single-family detached house,,,,38.87970895,-77.09867065
606 19th St S,606 19TH ST S,Under Construction,0,0,0,1,0,,2017-02-14T00:00:00,Low Residential (1-10 units/acre),"One-Family, Restricted Two Family Dwelling Distr",,,Single-family detached house,,,,38.856225,-77.05597102
608 N Vermont St,608 N VERMONT ST,Under Construction,0,0,0,1,0,,2017-09-22T00:00:00,Low Residential (1-10 units/acre),"One-Family, Restricted Two Family Dwelling Distr",,,Single-family detached house,,,,38.87689921,-77.11407693
610 N Vermont St,610 N VERMONT ST,Under Construction,0,0,0,1,0,,2017-09-22T00:00:00,Low Residential (1-10 units/acre),"One-Family, Restricted Two Family Dwelling Distr",,,Single-family detached house,,,,38.87699138,-77.11411022
6107 30Th St N,6107 30TH ST N,Under Construction,0,0,0,1,0,,2017-09-08T00:00:00,Low Residential (1-10 units/acre),One-Family Dwelling District,,,Single-family detached house,,,,38.89936758,-77.15219633
612 N Vermont St,612 N VERMONT ST,Under Construction,0,0,0,1,0,,2017-09-22T00:00:00,Low Residential (1-10 units/acre),"One-Family, Restricted Two Family Dwelling Distr",,,Single-family detached house,,,,38.87705843,-77.11413637
Honeysuckle Hills URD,6122 LEE HIGHWAY,Approved (Not Under Construction),0,0,0,3,0,2014-02-22T00:00:00,,Low Residential (1-10 units/acre),One-Family Dwelling District,,41894,Single-family detached house,,,,38.892737,-77.148931
616 S  Wayne St,616 S  WAYNE ST,Under Construction,0,0,0,1,0,,2017-06-14T00:00:00,Low Residential (1-10 units/acre),One-Family Dwelling District,,,Single-family detached house,,,,38.8677728,-77.0834736
6213 31st St N,6213 31ST ST N,Under Construction,0,0,0,1,0,,2016-04-22T00:00:00,Low Residential (1-10 units/acre),One-Family Dwelling District,,,Single-family detached house,,,,38.90002772,-77.1536398
6225 31St St N,6225 31ST ST N,Under Construction,0,0,0,1,0,,2016-12-16T00:00:00,Low Residential (1-10 units/acre),One-Family Dwelling District,,,Single-family detached house,,,,38.89998962,-77.15415182
6248 23rd St N,6248 23RD ST N,Under Construction,0,0,0,1,0,,2008-05-07T00:00:00,Low Residential (1-10 units/acre),One-Family Dwelling District,,5434,Single-family detached house,,,,38.89064111,-77.15211483
625 N Harrison St,625 N HARRISON ST,Under Construction,0,0,0,1,0,,2017-09-20T00:00:00,Low Residential (1-10 units/acre),One-Family Dwelling District,,,Single-family detached house,,,,38.87435636,-77.12486559
6306 31St St N,6306 31ST ST N,Under Construction,0,0,0,1,0,,2016-12-07T00:00:00,Low Residential (1-10 units/acre),One-Family Dwelling District,,,Single-family detached house,,,,38.8996068,-77.15475163
638 N Kenmore St,638 N KENMORE ST,Under Construction,0,0,0,1,0,,2017-08-15T00:00:00,Low Residential (1-10 units/acre),One-Family Dwelling District,,,Single-family detached house,,,,38.88060446,-77.10027265
640 19Th St S,640 19TH ST S,Under Construction,0,0,0,1,0,,2016-11-29T00:00:00,Low Residential (1-10 units/acre),"One-Family, Restricted Two Family Dwelling Distr",,,Single-family detached house,,,,38.85621999,-77.05746866
6400 28Th St N,6400 28TH ST N,Under Construction,0,0,0,1,0,,2017-07-21T00:00:00,Low Residential (1-10 units/acre),One-Family Dwelling District,,,Single-family detached house,,,,38.89745235,-77.15553475
6518 Little Falls Rd,6413 27TH ST N,Under Construction,0,0,0,1,0,,2012-10-12T00:00:00,Low Residential (1-10 units/acre),One-Family Dwelling District,,8019,Single-family detached house,,,,38.8971362,-77.1561323
672 Flats,670 N GLEBE RD,Under Construction,0,4326,0,173,0,2015-10-17T00:00:00,2017-04-01T00:00:00,High-Med. Res. Mixed Use,,,43936,Highrise (4+ stories),78,6,177,38.87843393,-77.11217322
6808 31st St N,6808 31ST ST N,Under Construction,0,0,0,1,0,,2017-02-16T00:00:00,Low Residential (1-10 units/acre),One-Family Dwelling District,,,Single-family detached house,,,,38.89682724,-77.16686171
6827 28th St N,6827 28TH ST N,Under Construction,0,0,0,1,0,,2017-05-31T00:00:00,Low Residential (1-10 units/acre),One-Family Dwelling District,,,Single-family detached house,,,,38.89341077,-77.16546513
6827 27th St N,6872 27TH ST N,Under Construction,0,0,0,1,0,,2015-03-11T00:00:00,Low Residential (1-10 units/acre),One-Family Dwelling District,,8026,Single-family detached house,,,,38.89208199,-77.16550999
Macy's Department Store and Office Expansion,701 N GLEBE RD,Approved (Not Under Construction),19806,0,0,0,0,2015-11-14T00:00:00,,Medium Office-Apartment-Hotel,"Commercial Office Building, Hotel and Apartment",,,,,,,38.87921568,-77.11190382
703 N  Fillmore St,703 N  FILLMORE ST,Under Construction,0,0,0,1,0,,2016-12-07T00:00:00,Low Residential (1-10 units/acre),One-Family Dwelling District,,,Single-family detached house,,,,38.88108104,-77.09227535
705/707 N Barton St,705 N BARTON ST,Approved (Not Under Construction),0,0,0,2,0,2008-01-26T00:00:00,,Low Residential (1-10 units/acre),"One-Family, Restricted Two Family Dwelling Distr",,,Single-family detached house,,,0,38.88096797,-77.08720023
715 N Jefferson St,715 N JEFFERSON ST,Under Construction,0,0,0,1,0,,2013-04-15T00:00:00,,One-Family Dwelling District,,6000,Single-family detached house,,,,38.87490922,-77.12732465
723 N Dansville St,723 N DANVILLE ST,Under Construction,0,0,0,1,0,,2013-11-04T00:00:00,Low Residential (1-10 units/acre),"One-Family, Restricted Two Family Dwelling Distr",,7500,Single-family detached house,,,,38.88137365,-77.08948454
750 N. Glebe Road (Mazda Block),750 N GLEBE RD,Approved (Not Under Construction),0,68185,0,483,0,2016-06-18T00:00:00,,High-Medium Residential Mixed-Use,Apartment Dwelling District,,,Highrise (4+ stories),,,,38.87943329,-77.11384649
806 22nd St S,806 22ND ST S,Under Construction,0,0,0,1,0,,2017-03-17T00:00:00,Low Residential (1-10 units/acre),"One-Family, Restricted Two Family Dwelling Distr",,,Single-family detached house,,,,38.85390864,-77.05985846
828 S Utah St,828 S UTAH ST,Under Construction,0,0,0,1,0,,2016-03-23T00:00:00,Low Residential (1-10 units/acre),One-Family Dwelling District,,27950,Single-family detached house,,,,38.8599069,-77.1063456
830 22Nd St S,830 22ND ST S,Under Construction,0,0,0,1,0,,2016-10-05T00:00:00,Low Residential (1-10 units/acre),"One-Family, Restricted Two Family Dwelling Distr",,,Single-family detached house,,,,38.85390573,-77.06095097
856 N  Harrison St,856 N  HARRISON ST,Under Construction,0,0,0,1,0,,2016-09-29T00:00:00,Low Residential (1-10 units/acre),One-Family Dwelling District,,,Single-family detached house,,,,38.877431,-77.127403
900 N  Harrison St,900 N  HARRISON ST,Under Construction,0,0,0,1,0,,2017-04-13T00:00:00,Low Residential (1-10 units/acre),One-Family Dwelling District,,,Single-family detached house,,,,38.8787679,-77.1276907
910 N Danville St,910 N  DANVILLE ST,Under Construction,0,0,0,1,0,,2017-01-12T00:00:00,Low Residential (1-10 units/acre),"One-Family, Restricted Two Family Dwelling Distr",,,Single-family detached house,,,,38.88341436,-77.09004917
920 N  Quesada St,920 N  QUESADA ST,Under Construction,0,0,0,1,0,,2017-06-29T00:00:00,Low Residential (1-10 units/acre),One-Family Dwelling District,,,Single-family detached house,,,,38.8758546,-77.1497829
929 N Daniel St,929 N  DANIEL ST,Under Construction,0,0,0,1,0,,2017-03-21T00:00:00,Low Residential (1-10 units/acre),"One-Family, Restricted Two Family Dwelling Distr",,,Single-family detached house,,,,38.88401063,-77.0905051
Columbia Pike Village Center,950 S GEORGE MASON DR,Approved (Not Under Construction),0,81530,0,365,0,2016-02-02T00:00:00,,Service Commercial,Service Commercial -  Community Business Distric,,130429,Highrise (4+ stories),54,6,604,38.85885238,-77.10263747
989 S  Buchanan St,989 S  BUCHANAN ST,Under Construction,0,0,0,1,0,,2016-11-21T00:00:00,Service Commercial,Service Commercial -  Community Business Distric,,,Single-family detached house,,,,38.85707479,-77.10858536
Gilliam Place,3507 COLUMBIA PIKE,Approved (Not Under Construction),0,8900,0,173,0,2015-12-12T00:00:00,,Service Commercial,Service Commercial -  Community Business Distric,APAH,56761,Highrise (4+ stories),,6,205,38.86138608,-77.09342083
The Altaire,400 ARMY NAVY DR,Under Construction,0,0,0,453,0,2015-01-24T00:00:00,2017-01-25T00:00:00,High Office-Apartment-Hotel,,Arlington Apartments LLC,77118,Highrise (4+ stories),200,20,453,38.86430221,-77.05344739
4040 Wilson Blvd (Founder's Square - North Office),707 N RANDOLPH,Approved (Not Under Construction),191300,33400,0,244,0,2016-07-16T00:00:00,,Medium Office-Apartment-Hotel,"Commercial Office Building, Hotel and Apartment",Ashton Park Associates c/o The Shooshan Co.,233151,Highrise (4+ stories),249,20,544,38.8790757,-77.1092134
3901 Fairfax Drive,3901 FAIRFAX DR,Approved (Not Under Construction),178131,3200,12985,0,0,2012-01-21T00:00:00,,Medium Office-Apartment-Hotel,"Commercial Office Building, Hotel and Apartment",BDC Crimson LLC,45508,,123,9,250,38.88265257,-77.10694187
Carr Office Building,2038 WILSON BLVD,Approved (Not Under Construction),188910,6960,0,0,0,2015-03-14T00:00:00,,Medium O-A-H,"Commercial Office Building, Hotel and Apartment",Carr Properties,24980,,147,12,244,38.89176175,-77.08348832
Columbia Hills,1010 S FREDERICK ST,Under Construction,0,0,0,229,0,2015-02-21T00:00:00,2017-04-01T00:00:00,Low-Medium Residential,Apartment Dwelling District,Columbia Grove Apartments Limited Partnership,52796,Highrise (4+ stories),,8,189,38.85311954,-77.11529995
Rosslyn Gateway PDSP - FSP (Phase 1 - Residential/Hotel Building),1901 FT MYER DR,Approved (Not Under Construction),0,10001,0,133,148,2012-07-21T00:00:00,,High Office-Apartment-Hotel,,JBG,95927,Highrise (4+ stories),323,25,875,38.89739,-77.0720009
Rosslyn Gateway PDSP (Phase 2 - Remaining Allocation),1901 FT MYER DR,Approved (Not Under Construction),0,7687,0,140,0,2012-07-21T00:00:00,,High Office-Apartment-Hotel,,JBG,95927,Highrise (4+ stories),270,20,875,38.89739,-77.0720009
The Spire/Fairmont,4420 FAIRFAX DR,Approved (Not Under Construction),0,9200,0,237,0,2006-01-21T00:00:00,,"Coordinated Mixed-Use, Development District","Commercial Off. Bldg, Hotel and Apartment Distri",JBG,27460,Highrise (4+ stories),246,21,294,38.88184685,-77.1145221
Gables N. Rolfe St.,1307 N ROLFE ST,Under Construction,0,0,0,395,0,2015-02-21T00:00:00,2016-06-30T00:00:00,Medium Residential,Apartment Dwelling District,LG Rolfe St LLC,94540,Highrise (4+ stories),264,13,401,38.88888359,-77.07953686
1812 N Moore St,1812 N MOORE ST,Under Construction,569739,11020,21031,0,0,2007-12-15T00:00:00,2012-02-15T00:00:00,High Office-Apartment-Hotel,C-O-ROSSLYN,"Monday Properties Services, LLC",60179,,470,30,473,38.89640584,-77.07181575
Boeing Site - Phase II,608 S BALL ST,Approved (Not Under Construction),131338,0,0,0,0,2011-10-15T00:00:00,,Low Office-Apartment-Hotel,"Commercial Office Building, Hotel and Apartment",Monument Realty,204966,,94,6,739,38.864162,-77.049601
NSTA Office Site Plan,1840 WILSON BLVD,Approved (Not Under Construction),107920,10000,0,0,0,2005-11-15T00:00:00,,Medium Office-Apartment-Hotel,"Commercial Office Building, Hotel and Apartment",NSTA,50880,,61,6,206,38.89281442,-77.08067583
4000 Fairfax Drive,4000 FAIRFAX DR,Approved (Not Under Construction),0,11692,0,330,0,2015-12-12T00:00:00,,Coord. Mixed Use Devel. District,"Commercial Off. Bldg, Hotel and Apartment Distri",Penzance,82370,Highrise (4+ stories),216,22,270,38.88217951,-77.10802096
Pentagon Centre PDSP - Phase I A (FSP),1201 S HAYES,Under Construction,0,10739,0,440,0,2015-09-15T00:00:00,2017-07-01T00:00:00,Medium Office-Apartment-Hotel,"Commercial Office Building, Hotel and Apartment",PL Pentagon LLC,,,,,,38.8615586,-77.0581969
Pentagon Centre PDSP - Phase II and III (Remaining Allocation),1201 S HAYES,Approved (Not Under Construction),705700,310500,0,0,200,2015-09-15T00:00:00,,Medium Office-Apartment-Hotel,"Commercial Office Building, Hotel and Apartment",PL Pentagon LLC,,Highrise (4+ stories),,,,38.8615586,-77.0581969
Pentagon Centre PDSP - Phase IB (FSP),719 15TH ST S,Approved (Not Under Construction),0,15541,0,253,0,2015-09-15T00:00:00,,Medium Office-Apartment-Hotel,"Commercial Office Building, Hotel and Apartment",PL Pentagon LLC,,,,,,38.86065889,-77.05883985
Red Top Cab Site,1200 N HUDSON ST,Approved (Not Under Construction),0,3477,0,580,0,2015-10-20T00:00:00,,Medium Density Mixed Use,General Commercial District,Shooshan,152954,Highrise (4+ stories),103,10,463,38.88720847,-77.09703628
Lofts at Crystal Houses,1900 S EADS ST,Approved (Not Under Construction),0,0,0,252,0,2006-11-14T00:00:00,,Medium Residential,Apartment Dwelling District,Smith Property Holdings Crystal Tower LP,0,Highrise (4+ stories),105,,322,38.8564332,-77.0541067
Potomac Yard - Land Bay D - West (Brittany West),3001 JEFFERSON DAVIS HWY,Approved (Not Under Construction),0,5015,23906,342,0,2007-04-21T00:00:00,,Med Resid. 1/3 & Low OAH 2/3,"Commercial Office Building, Hotel and Apartment",The Meridian Group LLC,61483,Highrise (4+ stories),120,12,438,38.8323995,-77.0510397
Potomac Yard - Land Bay C (National Gateway 3-4-5-6),JEFFERSON DAVIS HWY,Approved (Not Under Construction),1064298,41325,0,0,0,2007-12-18T00:00:00,,Med Resid. 1/3 & Low OAH 2/3,"Commercial Office Building, Hotel and Apartment",The Meridian Group LLC,160545,,140,12,1775,38.8589228,-77.0520383
Potomac Yard - Land Bay D-East (Brittany East),JEFFERSON DAVIS HWY,Approved (Not Under Construction),0,16503,0,360,0,2007-04-21T00:00:00,,Med Resid. 1/3 & Low OAH 2/3,"Commercial Office Building, Hotel and Apartment",The Meridian Group LLC,66568,Highrise (4+ stories),120,12,476,38.84474766,-77.05093462
Wakefield Manor,2025 FAIRFAX DR,Approved (Not Under Construction),0,0,0,188,0,2011-10-15T00:00:00,,,,Virginia Land Trust,80927,Highrise (4+ stories),125,12,189,38.88733974,-77.08285008
3803 Fairfax Drive Expansion,3803 FAIRFAX DR,Approved (Not Under Construction),43045,0,0,0,0,1999-01-27T00:00:00,,High Office-Apartment-Hotel,"Commercial Off. Bldg, Hotel and Multiple-Family","Virginia Medical Square II, L.P.",24130,,92,7,109,38.88288277,-77.10522978
Axumite Village,1100 S HIGHLAND ST,Approved (Not Under Construction),0,0,0,36,0,2009-07-11T00:00:00,,Low Residential (1-10 units/acre),,"VMS, LLC Developers",29734,Garden (Less than 4 stories),43,4,41,38.86091575,-77.08885487
2515 Lee Hwy,2515 LEE HWY,Approved (Not Under Construction),0,12200,0,22,0,2006-07-08T00:00:00,,Low-Medium Residential,Service Commercial -  Community Business Distric,WSD,22643,Garden (Less than 4 stories),,4,75,38.89525187,-77.09055799
